[{"OBJECT_NAME":"ONEWEB-0267","OBJECT_ID":"2021-060U","EPOCH":"2026-03-09T23:09:12.675456","MEAN_MOTION":13.16593432,"ECCENTRICITY":0.0001657,"INCLINATION":87.9004,"RA_OF_ASC_NODE":248.506,"ARG_OF_PERICENTER":102.7004,"MEAN_ANOMALY":257.4312,"EPHEMERIS_TYPE":0,"CLASSIFICATION_TYPE":"U","NORAD_CAT_ID":48985,"ELEMENT_SET_NO":999,"REV_AT_EPOCH":22653,"BSTAR":9.9371329e-5,"MEAN_MOTION_DOT":5.1e-7,"MEAN_MOTION_DDOT":0},{"OBJECT_NAME":"DELTA 1 DEB","OBJECT_ID":"1966-087E","EPOCH":"2026-03-09T12:12:12.925152","MEAN_MOTION":13.25110686,"ECCENTRICITY":0.00504697,"INCLINATION":101.7667,"RA_OF_ASC_NODE":77.3995,"ARG_OF_PERICENTER":95.8923,"MEAN_ANOMALY":58.3222,"EPHEMERIS_TYPE":0,"CLASSIFICATION_TYPE":"U","NORAD_CAT_ID":6213,"ELEMENT_SET_NO":999,"REV_AT_EPOCH":78314,"BSTAR":0.0077530095,"MEAN_MOTION_DOT":3.336e-5,"MEAN_MOTION_DDOT":0}]
